CCSDS_OMM_VERS = 2.0
CREATION_DATE  = 
ORIGINATOR     = 

OBJECT_NAME    = IDEFIX & ARIANE 42P R/B
OBJECT_ID      = 2002-021B
CENTER_NAME    = EARTH
REF_FRAME      = TEME
TIME_SYSTEM    = UTC
MEAN_ELEMENT_THEORY = SGP/SGP4

EPOCH          = 2025-12-23T13:28:08.755680
MEAN_MOTION    = 14.30957653
ECCENTRICITY   = .00128019
INCLINATION    = 98.5801
RA_OF_ASC_NODE = 292.1123
ARG_OF_PERICENTER = 54.4744
MEAN_ANOMALY   = 305.7631

EPHEMERIS_TYPE = 0
CLASSIFICATION_TYPE = U
NORAD_CAT_ID   = 27422
ELEMENT_SET_NO = 999
REV_AT_EPOCH   = 23313
BSTAR          = .1240789E-3
MEAN_MOTION_DOT = .283E-5
MEAN_MOTION_DDOT = 0

CCSDS_OMM_VERS = 2.0
CREATION_DATE  = 
ORIGINATOR     = 

OBJECT_NAME    = AQUA
OBJECT_ID      = 2002-022A
CENTER_NAME    = EARTH
REF_FRAME      = TEME
TIME_SYSTEM    = UTC
MEAN_ELEMENT_THEORY = SGP/SGP4

EPOCH          = 2025-12-23T20:08:03.450912
MEAN_MOTION    = 14.61824731
ECCENTRICITY   = .00015094
INCLINATION    = 98.4053
RA_OF_ASC_NODE = 318.8992
ARG_OF_PERICENTER = 108.9448
MEAN_ANOMALY   = 272.2576

EPHEMERIS_TYPE = 0
CLASSIFICATION_TYPE = U
NORAD_CAT_ID   = 27424
ELEMENT_SET_NO = 999
REV_AT_EPOCH   = 25765
BSTAR          = .20597954E-3
MEAN_MOTION_DOT = .98E-5
MEAN_MOTION_DDOT = 0

CCSDS_OMM_VERS = 2.0
CREATION_DATE  = 
ORIGINATOR     = 

OBJECT_NAME    = CZ-4B R/B
OBJECT_ID      = 2002-024C
CENTER_NAME    = EARTH
REF_FRAME      = TEME
TIME_SYSTEM    = UTC
MEAN_ELEMENT_THEORY = SGP/SGP4

EPOCH          = 2025-12-23T02:42:36.522144
MEAN_MOTION    = 14.14530059
ECCENTRICITY   = .00493182
INCLINATION    = 98.8984
RA_OF_ASC_NODE = 45.8479
ARG_OF_PERICENTER = 239.8816
MEAN_ANOMALY   = 174.4513

EPHEMERIS_TYPE = 0
CLASSIFICATION_TYPE = U
NORAD_CAT_ID   = 27432
ELEMENT_SET_NO = 999
REV_AT_EPOCH   = 21841
BSTAR          = .57330613E-4
MEAN_MOTION_DOT = .66E-6
MEAN_MOTION_DDOT = 0

CCSDS_OMM_VERS = 2.0
CREATION_DATE  = 
ORIGINATOR     = 

OBJECT_NAME    = MIDORI II (ADEOS-II)
OBJECT_ID      = 2002-056A
CENTER_NAME    = EARTH
REF_FRAME      = TEME
TIME_SYSTEM    = UTC
MEAN_ELEMENT_THEORY = SGP/SGP4

EPOCH          = 2025-12-23T10:14:27.665376
MEAN_MOTION    = 14.29212299
ECCENTRICITY   = .00007411
INCLINATION    = 98.7653
RA_OF_ASC_NODE = 310.4399
ARG_OF_PERICENTER = 147.7466
MEAN_ANOMALY   = 212.3760

EPHEMERIS_TYPE = 0
CLASSIFICATION_TYPE = U
NORAD_CAT_ID   = 27597
ELEMENT_SET_NO = 999
REV_AT_EPOCH   = 19940
BSTAR          = .11317173E-3
MEAN_MOTION_DOT = .242E-5
MEAN_MOTION_DDOT = 0

CCSDS_OMM_VERS = 2.0
CREATION_DATE  = 
ORIGINATOR     = 

OBJECT_NAME    = H-2A R/B
OBJECT_ID      = 2002-056E
CENTER_NAME    = EARTH
REF_FRAME      = TEME
TIME_SYSTEM    = UTC
MEAN_ELEMENT_THEORY = SGP/SGP4

EPOCH          = 2025-12-23T22:01:57.630432
MEAN_MOTION    = 14.33685456
ECCENTRICITY   = .00709567
INCLINATION    = 98.3082
RA_OF_ASC_NODE = 316.2305
ARG_OF_PERICENTER = 28.2593
MEAN_ANOMALY   = 38.2477

EPHEMERIS_TYPE = 0
CLASSIFICATION_TYPE = U
NORAD_CAT_ID   = 27601
ELEMENT_SET_NO = 999
REV_AT_EPOCH   = 20325
BSTAR          = .14829757E-3
MEAN_MOTION_DOT = .382E-5
MEAN_MOTION_DDOT = 0

CCSDS_OMM_VERS = 2.0
CREATION_DATE  = 
ORIGINATOR     = 

OBJECT_NAME    = CZ-4B R/B
OBJECT_ID      = 2003-049C
CENTER_NAME    = EARTH
REF_FRAME      = TEME
TIME_SYSTEM    = UTC
MEAN_ELEMENT_THEORY = SGP/SGP4

EPOCH          = 2025-12-23T22:38:07.123200
MEAN_MOTION    = 14.54919614
ECCENTRICITY   = .00493677
INCLINATION    = 98.6797
RA_OF_ASC_NODE = 344.9306
ARG_OF_PERICENTER = 102.5507
MEAN_ANOMALY   = 258.1217

EPHEMERIS_TYPE = 0
CLASSIFICATION_TYPE = U
NORAD_CAT_ID   = 28059
ELEMENT_SET_NO = 999
REV_AT_EPOCH   = 17558
BSTAR          = .10405394E-3
MEAN_MOTION_DOT = .403E-5
MEAN_MOTION_DDOT = 0

CCSDS_OMM_VERS = 2.0
CREATION_DATE  = 
ORIGINATOR     = 

OBJECT_NAME    = CZ-2C R/B
OBJECT_ID      = 2004-012C
CENTER_NAME    = EARTH
REF_FRAME      = TEME
TIME_SYSTEM    = UTC
MEAN_ELEMENT_THEORY = SGP/SGP4

EPOCH          = 2025-12-23T14:36:04.311072
MEAN_MOTION    = 15.56297790
ECCENTRICITY   = .00165555
INCLINATION    = 97.7398
RA_OF_ASC_NODE = 51.1328
ARG_OF_PERICENTER = 227.7549
MEAN_ANOMALY   = 132.2301

EPHEMERIS_TYPE = 0
CLASSIFICATION_TYPE = U
NORAD_CAT_ID   = 28222
ELEMENT_SET_NO = 999
REV_AT_EPOCH   = 19241
BSTAR          = .52347248E-3
MEAN_MOTION_DOT = .37034E-3
MEAN_MOTION_DDOT = 0

CCSDS_OMM_VERS = 2.0
CREATION_DATE  = 
ORIGINATOR     = 

OBJECT_NAME    = SL-16 R/B
OBJECT_ID      = 2004-021B
CENTER_NAME    = EARTH
REF_FRAME      = TEME
TIME_SYSTEM    = UTC
MEAN_ELEMENT_THEORY = SGP/SGP4

EPOCH          = 2025-12-23T19:03:43.714080
MEAN_MOTION    = 14.14579213
ECCENTRICITY   = .00046889
INCLINATION    = 71.0004
RA_OF_ASC_NODE = 31.7670
ARG_OF_PERICENTER = 181.4738
MEAN_ANOMALY   = 178.6371

EPHEMERIS_TYPE = 0
CLASSIFICATION_TYPE = U
NORAD_CAT_ID   = 28353
ELEMENT_SET_NO = 999
REV_AT_EPOCH   = 11210
BSTAR          = .69516348E-4
MEAN_MOTION_DOT = .86E-6
MEAN_MOTION_DDOT = 0

CCSDS_OMM_VERS = 2.0
CREATION_DATE  = 
ORIGINATOR     = 

OBJECT_NAME    = CZ-4B R/B
OBJECT_ID      = 2004-035C
CENTER_NAME    = EARTH
REF_FRAME      = TEME
TIME_SYSTEM    = UTC
MEAN_ELEMENT_THEORY = SGP/SGP4

EPOCH          = 2025-12-23T01:02:03.855552
MEAN_MOTION    = 15.27529993
ECCENTRICITY   = .0031647
INCLINATION    = 97.3590
RA_OF_ASC_NODE = 27.2497
ARG_OF_PERICENTER = 239.0694
MEAN_ANOMALY   = 120.7433

EPHEMERIS_TYPE = 0
CLASSIFICATION_TYPE = U
NORAD_CAT_ID   = 28415
ELEMENT_SET_NO = 999
REV_AT_EPOCH   = 16820
BSTAR          = .34458219E-3
MEAN_MOTION_DOT = .9343E-4
MEAN_MOTION_DDOT = 0

CCSDS_OMM_VERS = 2.0
CREATION_DATE  = 
ORIGINATOR     = 

OBJECT_NAME    = CZ-2C R/B
OBJECT_ID      = 2004-046B
CENTER_NAME    = EARTH
REF_FRAME      = TEME
TIME_SYSTEM    = UTC
MEAN_ELEMENT_THEORY = SGP/SGP4

EPOCH          = 2025-12-23T08:04:43.765824
MEAN_MOTION    = 14.26946599
ECCENTRICITY   = .01399999
INCLINATION    = 98.1997
RA_OF_ASC_NODE = 272.0562
ARG_OF_PERICENTER = 21.1428
MEAN_ANOMALY   = 339.5463

EPHEMERIS_TYPE = 0
CLASSIFICATION_TYPE = U
NORAD_CAT_ID   = 28480
ELEMENT_SET_NO = 999
REV_AT_EPOCH   = 9761
BSTAR          = .10878083E-3
MEAN_MOTION_DOT = .252E-5
MEAN_MOTION_DDOT = 0

CCSDS_OMM_VERS = 2.0
CREATION_DATE  = 
ORIGINATOR     = 

OBJECT_NAME    = ARIANE 5 R/B
OBJECT_ID      = 2004-049H
CENTER_NAME    = EARTH
REF_FRAME      = TEME
TIME_SYSTEM    = UTC
MEAN_ELEMENT_THEORY = SGP/SGP4

EPOCH          = 2025-12-23T23:20:14.372448
MEAN_MOTION    = 14.85039400
ECCENTRICITY   = .00834537
INCLINATION    = 98.2528
RA_OF_ASC_NODE = 158.6568
ARG_OF_PERICENTER = 236.0353
MEAN_ANOMALY   = 123.2910

EPHEMERIS_TYPE = 0
CLASSIFICATION_TYPE = U
NORAD_CAT_ID   = 28499
ELEMENT_SET_NO = 999
REV_AT_EPOCH   = 13455
BSTAR          = .14234612E-3
MEAN_MOTION_DOT = .1228E-4
MEAN_MOTION_DDOT = 0

CCSDS_OMM_VERS = 2.0
CREATION_DATE  = 
ORIGINATOR     = 

OBJECT_NAME    = CZ-2D R/B
OBJECT_ID      = 2005-024B
CENTER_NAME    = EARTH
REF_FRAME      = TEME
TIME_SYSTEM    = UTC
MEAN_ELEMENT_THEORY = SGP/SGP4

EPOCH          = 2025-12-23T22:18:55.962432
MEAN_MOTION    = 15.53814145
ECCENTRICITY   = .00037186
INCLINATION    = 97.3630
RA_OF_ASC_NODE = 5.6749
ARG_OF_PERICENTER = 321.6418
MEAN_ANOMALY   = 38.4570

EPHEMERIS_TYPE = 0
CLASSIFICATION_TYPE = U
NORAD_CAT_ID   = 28738
ELEMENT_SET_NO = 999
REV_AT_EPOCH   = 12799
BSTAR          = .48747787E-3
MEAN_MOTION_DOT = .31286E-3
MEAN_MOTION_DDOT = 0

